ONEWEB-0291             
1 49081U 21075G   25093.49286324  .00000075  00000+0  15884-3 0  9994
2 49081  87.8996  93.4299 0001718  94.4362 265.6966 13.17650866175705
ONEWEB-0293             
1 49082U 21075H   25093.97378848 -.00000039  00000+0 -13347-3 0  9995
2 49082  87.9004  93.3623 0001811  86.8771 273.2567 13.17650788175794
ONEWEB-0294             
1 49083U 21075J   25093.89840105 -.00000403  00000+0 -11562-2 0  9998
2 49083  87.8818  78.0691 0001349  83.1380 276.9902 13.12442920176958
ONEWEB-0295             
1 49084U 21075K   25093.89701623 -.00000006  00000+0 -48444-4 0  9990
2 49084  87.9015  93.3608 0001768 100.6011 259.5320 13.17649139175741
ONEWEB-0296             
1 49085U 21075L   25093.87894638  .00000186  00000+0  48031-3 0  9996
2 49085  87.8817  78.0799 0001403 102.0235 258.1050 13.12441603176952
ONEWEB-0297             
1 49086U 21075M   25093.98599979 -.00000297  00000+0 -86057-3 0  9994
2 49086  87.8824  78.0872 0001945  88.8545 271.2806 13.12443730178566
ONEWEB-0298             
1 49087U 21075N   25093.90134948 -.00000021  00000+0 -88538-4 0  9990
2 49087  87.9004  93.3742 0002054  94.9437 265.1929 13.17651557175775
ONEWEB-0299             
1 49088U 21075P   25093.90290907 -.00000018  00000+0 -78322-4 0  9995
2 49088  87.8998  93.3305 0002058  95.7568 264.3798 13.17646653175754
